
# Worst residual: 137.38 km
# MJD 59115.000000 (2020 Sep 23  0:00)
ZTF0Dy2 = ZTF0E1U = ZTF0E2T
1 99999U 00000    20267.49919926  .00000000  00000-0  00000-0 0  9643
2 99999 026.7932 319.0596 7442181 205.1193 340.1313 01.06765062    05

# Worst residual: 157.43 km
# MJD 59116.000000 (2020 Sep 24  0:00)
ZTF0Dy2 = ZTF0E1U = ZTF0E2T
1 99999U 00000    20268.49919926  .00000000  00000-0  00000-0 0  9644
2 99999 026.5809 318.7394 7421861 206.0501 003.0342 01.06890002    03

# Worst residual: 120.75 km
# MJD 59117.000000 (2020 Sep 25  0:00)
ZTF0Dy2 = ZTF0E1U = ZTF0E2T
1 99999U 00000    20269.49919926  .00000000  00000-0  00000-0 0  9645
2 99999 026.3795 318.4459 7401484 206.9444 025.9925 01.06936810    06

# Worst residual: 164.85 km
# MJD 59118.000000 (2020 Sep 26  0:00)
ZTF0Dy2 = ZTF0E1U = ZTF0E2T
1 99999U 00000    20270.49919926  .00000000  00000-0  00000-0 0  9647
2 99999 026.1956 318.1522 7383298 207.8549 048.8995 01.06915571    01

# Worst residual: 194.29 km
# MJD 59119.000000 (2020 Sep 27  0:00)
ZTF0Dy2 = ZTF0E1U = ZTF0E2T
1 99999U 00000    20271.49919926  .00000000  00000-0  00000-0 0  9648
2 99999 025.9796 317.8475 7364284 208.7750 071.8222 01.06853463    01

# Worst residual: 181.59 km
# MJD 59120.000000 (2020 Sep 28  0:00)
ZTF0Dy2 = ZTF0E1U = ZTF0E2T
1 99999U 00000    20272.49919926  .00000000  00000-0  00000-0 0  9649
2 99999 025.7680 317.5372 7345313 209.7356 094.6217 01.06762773    09

# Worst residual: 204.82 km
# MJD 59121.000000 (2020 Sep 29  0:00)
ZTF0Dy2 = ZTF0E1U = ZTF0E2T
1 99999U 00000    20273.49919926  .00000000  00000-0  00000-0 0  9640
2 99999 025.5924 317.2259 7322872 210.6975 117.4187 01.06663980    02

# Worst residual: 233.74 km
# MJD 59122.000000 (2020 Sep 30  0:00)
ZTF0Dy2 = ZTF0E1U = ZTF0E2T
1 99999U 00000    20274.49919926  .00000000  00000-0  00000-0 0  9641
2 99999 025.3867 316.8955 7296830 211.7039 140.1402 01.06570454    07
